{
  "norad_id": 61699,
  "name": "STARLINK-11296 [DTC]",
  "history": [
    {
      "epoch": "2026-03-28T18:17:37.021056",
      "apogee_km": 360.35896487637547,
      "perigee_km": 359.18225669122876,
      "latitude_deg": 8.400712635877353,
      "longitude_deg": 63.07446783990599,
      "semi_major_axis_km": 6737.907610783802,
      "eccentricity": 8.732e-05,
      "inclination_deg": 53.1585,
      "raan_deg": 291.9067,
      "arg_perigee_deg": 49.4793,
      "mean_anomaly_deg": 310.6301,
      "mean_motion_rev_day": 15.69694673
    }
  ]
}